MALLIGYONG-1            
1 58400U 23179A   23339.82331788  .00006729  00000+0  30240-3 0  9994
2 58400  97.4264 224.4132 0014463 224.7504 135.2566 15.21374061  2168
